[{"OBJECT_NAME":"STARLINK-5093","OBJECT_ID":"2023-058R","EPOCH":"2026-03-09T22:20:13.982496","MEAN_MOTION":15.01261708,"ECCENTRICITY":0.00017421,"INCLINATION":97.6039,"RA_OF_ASC_NODE":70.4031,"ARG_OF_PERICENTER":26.497,"MEAN_ANOMALY":333.6343,"EPHEMERIS_TYPE":0,"CLASSIFICATION_TYPE":"U","NORAD_CAT_ID":56332,"ELEMENT_SET_NO":999,"REV_AT_EPOCH":15816,"BSTAR":1.0624616e-5,"MEAN_MOTION_DOT":7.8e-7,"MEAN_MOTION_DDOT":0},{"OBJECT_NAME":"COSMOS 2251 DEB","OBJECT_ID":"1993-036BTL","EPOCH":"2026-03-05T23:04:31.790784","MEAN_MOTION":14.99909335,"ECCENTRICITY":0.00032115,"INCLINATION":74.0103,"RA_OF_ASC_NODE":259.8781,"ARG_OF_PERICENTER":226.5417,"MEAN_ANOMALY":133.5503,"EPHEMERIS_TYPE":0,"CLASSIFICATION_TYPE":"U","NORAD_CAT_ID":38220,"ELEMENT_SET_NO":999,"REV_AT_EPOCH":72615,"BSTAR":0.0034301399,"MEAN_MOTION_DOT":0.00042797,"MEAN_MOTION_DDOT":0}]
